GLOBALSTAR M057         
1 25943U 99058A   25343.32230296 -.00000034  00000+0  53658-3 0  9995
2 25943  51.9965 211.1690 0003163  29.4017 330.7010 12.24831502188397
GLOBALSTAR M059         
1 25944U 99058B   25343.51872689 -.00000070  00000+0  20497-3 0  9990
2 25944  52.0022  92.8384 0000627 115.0192 328.0184 11.99988205595091
GLOBALSTAR M056         
1 25945U 99058C   25343.48295220 -.00000137  00000+0 -57498-3 0  9993
2 25945  51.9970  90.4017 0001566 149.3398 290.7925 12.04781398183755
GLOBALSTAR M031         
1 25946U 99058D   25343.42831872 -.00000133  00000+0 -43094-3 0  9990
2 25946  51.9980 332.3844 0001179 168.9653 347.5457 12.16044180185863
GLOBALSTAR M039         
1 25961U 99062A   25343.46917462 -.00000074  00000+0  16739-3 0  9995
2 25961  51.9847  94.8338 0002589  35.8817 324.2223 12.62338769202357
GLOBALSTAR M034         
1 25962U 99062B   25343.22768308 -.00000060  00000+0  33478-3 0  9997
2 25962  51.9884 276.3816 0014883  13.9547 135.0845 11.79453133159049
GLOBALSTAR M029         
1 25963U 99062C   25343.47623757 -.00000037  00000+0  60667-3 0  9997
2 25963  51.9829 340.8410 0002563  99.0098  68.5511 11.99904088190164
GLOBALSTAR M061         
1 25964U 99062D   25343.52926490 -.00000098  00000+0 -29053-3 0  9996
2 25964  51.9792 101.9577 0004971 293.9069 148.8866 11.76778125141822
